NORAD_CAT_ID,OBJECT_NAME,OBJECT_TYPE,EPOCH,MEAN_MOTION,ECCENTRICITY,INCLINATION,RA_OF_ASC_NODE,ARG_OF_PERICENTER,MEAN_ANOMALY,BSTAR,MEAN_MOTION_DOT,MEAN_MOTION_DDOT,TLE_LINE0,TLE_LINE1,TLE_LINE2,SEMIMAJOR_AXIS,PERIOD,APOGEE,PERIGEE,DECAYED
53157.0,STARLINK-4093,PAYLOAD,2022-10-22 22:00:00,15.08829665,0.0001633,53.2156,302.7270000000001,55.8833,240.0837,0.0032698999999999,0.00052123,0.0,0 STARLINK-4093,1 53157U 22083AB  22295.91667824  .00052123  00000-0  32699-2 0  9993,2 53157  53.2156 302.7270 0001633  55.8833 240.0837 15.08829665  1309,6917.9119999999975,95.438,540.9069999999998,538.6469999999998,0.0
53157.0,STARLINK-4093,PAYLOAD,2022-10-23 06:00:00,15.08863494,0.0001726,53.2162,301.232,51.4051,256.1723,-0.0022724,-0.00036295,0.0,0 STARLINK-4093,1 53157U 22083AB  22296.25001157 -.00036295  00000-0 -22724-2 0  9994,2 53157  53.2162 301.2320 0001726  51.4051 256.1723 15.08863494 15779,6917.809,95.436,540.868,538.48,0.0
53157.0,STARLINK-4093,PAYLOAD,2022-10-23 14:00:01,15.08848792,0.0001710999999999,53.2156,299.7355,47.4725,271.7005,-0.0005119,-8.428e-05,0.0,0 STARLINK-4093,1 53157U 22083AB  22296.58334491 -.00008428  00000-0 -51190-3 0  9997,2 53157  53.2156 299.7355 0001711  47.4725 271.7005 15.08848792  1302,6917.854,95.437,540.9019999999998,538.535,0.0
53157.0,STARLINK-4093,PAYLOAD,2022-10-23 22:00:00,15.08839708,0.0001521999999999,53.2156,298.2375,54.0826,276.6973,-0.00028581,-4.834e-05,0.0,0 STARLINK-4093,1 53157U 22083AB  22296.91667824 -.00004834  00000-0 -28581-3 0  9998,2 53157  53.2156 298.2375 0001522  54.0826 276.6973 15.08839708  1309,6917.880999999999,95.438,540.799,538.693,0.0
53157.0,STARLINK-4093,PAYLOAD,2022-10-24 14:00:01,15.08847513,0.0001686,53.2153,295.2458,45.9436,308.0114,-0.00086708,-0.00014064,0.0,0 STARLINK-4093,1 53157U 22083AB  22297.58334491 -.00014064  00000-0 -86708-3 0  9994,2 53157  53.2153 295.2458 0001686  45.9436 308.0114 15.08847513  1302,6917.857,95.437,540.889,538.556,0.0
53157.0,STARLINK-4093,PAYLOAD,2022-10-24 22:00:00,15.0882736,0.0001554,53.2153,293.7479,53.2308,312.3265,0.0024058,0.00038195,0.0,0 STARLINK-4093,1 53157U 22083AB  22297.91667824  .00038195  00000-0  24058-2 0  9998,2 53157  53.2153 293.7479 0001554  53.2308 312.3265 15.08827360  1305,6917.919,95.438,540.859,538.7090000000002,0.0
53157.0,STARLINK-4093,PAYLOAD,2022-10-25 06:00:00,15.08846522,0.0001706999999999,53.2155,292.253,47.8214,329.3347,-0.0022293,-0.00035599,0.0,0 STARLINK-4093,1 53157U 22083AB  22298.25001157 -.00035599  00000-0 -22293-2 0  9993,2 53157  53.2155 292.2530 0001707  47.8214 329.3347 15.08846522 16085,6917.86,95.437,540.906,538.545,0.0
53157.0,STARLINK-4093,PAYLOAD,2022-10-25 14:00:01,15.08843584,0.0001689,53.2155,290.7561,44.0788,344.6581,-0.0012052999999999,-0.00019421,0.0,0 STARLINK-4093,1 53157U 22083AB  22298.58334491 -.00019421  00000-0 -12053-2 0  9998,2 53157  53.2155 290.7561 0001689  44.0788 344.6581 15.08843584  1300,6917.869000000002,95.437,540.903,538.566,0.0
53157.0,STARLINK-4093,PAYLOAD,2022-10-25 22:00:01,15.08827101,0.0001559,53.2157,289.2581,50.9033,349.4924,0.0020737,0.00032858,0.0,0 STARLINK-4093,1 53157U 22083AB  22298.91668981  .00032858  00000-0  20737-2 0  9994,2 53157  53.2157 289.2581 0001559  50.9033 349.4924 15.08827101  1303,6917.92,95.438,540.863,538.706,0.0
53157.0,STARLINK-4093,PAYLOAD,2022-10-26 14:00:01,15.08836957,0.0001688,53.216,286.2665,42.3698,21.1313,-0.0012193,-0.00019639,0.0,0 STARLINK-4093,1 53157U 22083AB  22299.58334491 -.00019639  00000-0 -12193-2 0  9995,2 53157  53.2160 286.2665 0001688  42.3698  21.1313 15.08836957 16280,6917.89,95.438,540.922,538.587,0.0
53157.0,STARLINK-4093,PAYLOAD,2022-10-26 22:00:00,15.08816659,0.0001588999999999,53.2164,284.7687,49.6662,25.4202,0.0027289,0.00043382,0.0,0 STARLINK-4093,1 53157U 22083AB  22299.91667824  .00043382  00000-0  27289-2 0  9993,2 53157  53.2164 284.7687 0001589  49.6662  25.4202 15.08816659  1300,6917.9519999999975,95.439,540.9159999999998,538.717,0.0
53157.0,STARLINK-4093,PAYLOAD,2022-10-27 06:00:00,15.08846399,0.00018,53.2166,283.274,45.9686,40.7075,-7.1795e-05,-1.431e-05,0.0,0 STARLINK-4093,1 53157U 22083AB  22300.25001157 -.00001431  00000-0 -71795-4 0  9998,2 53157  53.2166 283.2740 0001800  45.9686  40.7075 15.08846399 16383,6917.861,95.437,540.971,538.481,0.0
53157.0,STARLINK-4093,PAYLOAD,2022-10-27 14:00:01,15.08873437,0.0001811999999999,53.2167,281.777,46.4923,51.8446,-0.0041086,-0.00065146,0.0,0 STARLINK-4093,1 53157U 22083AB  22300.58335648 -.00065146  00000-0 -41086-2 0  9990,2 53157  53.2167 281.7770 0001812  46.4923  51.8446 15.08873437  1307,6917.778,95.435,540.8969999999998,538.39,0.0
53157.0,STARLINK-4093,PAYLOAD,2022-10-27 22:00:00,15.08824907,0.0001759,53.2171,280.2794,54.5997,55.2824,0.0025408,0.00040364,0.0,0 STARLINK-4093,1 53157U 22083AB  22300.91667824  .00040364  00000-0  25408-2 0  9994,2 53157  53.2171 280.2794 0001759  54.5997  55.2824 15.08824907  1309,6917.927,95.439,541.008,538.575,0.0
53157.0,STARLINK-4093,PAYLOAD,2022-10-28 14:00:01,15.08851439,0.0001796,53.2171,277.2878,48.5568,84.5937,-0.0013157,-0.00021173,0.0,0 STARLINK-4093,1 53157U 22083AB  22301.58335648 -.00021173  00000-0 -13157-2 0  9991,2 53157  53.2171 277.2878 0001796  48.5568  84.5937 15.08851439 16582,6917.845,95.437,540.953,538.4680000000002,0.0
53157.0,STARLINK-4093,PAYLOAD,2022-10-28 22:00:01,15.08842906,0.0001749,53.2174,275.7904,56.3796,88.3697,-0.00043525,-7.209e-05,0.0,0 STARLINK-4093,1 53157U 22083AB  22301.91668981 -.00007209  00000-0 -43525-3 0  9994,2 53157  53.2174 275.7904 0001749  56.3796  88.3697 15.08842906  1304,6917.871999999999,95.437,540.946,538.5269999999998,0.0
53157.0,STARLINK-4093,PAYLOAD,2022-10-29 06:00:00,15.08833863,0.0001914,53.2173,274.296,51.4667,104.82,0.00090897,0.00014205,0.0,0 STARLINK-4093,1 53157U 22083AB  22302.25001157  .00014205  00000-0  90897-3 0  9994,2 53157  53.2173 274.2960 0001914  51.4667 104.8200 15.08833863 16689,6917.899,95.438,541.0880000000002,538.44,0.0
53157.0,STARLINK-4093,PAYLOAD,2022-10-29 12:00:00,15.08863134,0.0001854,53.2169,273.1734,49.6799,25.2961,-0.0024212,-0.0003864,0.0,0 STARLINK-4093,1 53157U 22083AB  22302.50001157 -.00038640  00000-0 -24212-2 0  9990,2 53157  53.2169 273.1734 0001854  49.6799  25.2961 15.08863134  1306,6917.81,95.436,540.957,538.3919999999998,0.0
53157.0,STARLINK-4093,PAYLOAD,2022-10-29 22:00:01,15.08843119,0.0001644,53.2173,271.3017,57.9362,121.6107,0.002187,0.00034693,0.0,0 STARLINK-4093,1 53157U 22083AB  22302.91668981  .00034693  00000-0  21870-2 0  9998,2 53157  53.2173 271.3017 0001644  57.9362 121.6107 15.08843119  1304,6917.871,95.437,540.873,538.599,0.0
53157.0,STARLINK-4093,PAYLOAD,2022-10-30 14:00:01,15.08828566,0.0001744,53.2165,268.31,54.4726,148.1624,-0.00090113,-0.00014597,0.0,0 STARLINK-4093,1 53157U 22083AB  22303.58334491 -.00014597  00000-0 -90113-3 0  9998,2 53157  53.2165 268.3100 0001744  54.4726 148.1624 15.08828566  1308,6917.915,95.438,540.987,538.5740000000002,0.0
53157.0,STARLINK-4093,PAYLOAD,2022-10-30 22:00:01,15.08840448,0.0001751,53.2166,266.8132,62.1841,152.0845,-0.0011815,-0.00019043,0.0,0 STARLINK-4093,1 53157U 22083AB  22303.91668981 -.00019043  00000-0 -11815-2 0  9991,2 53157  53.2166 266.8132 0001751  62.1841 152.0845 15.08840448  1301,6917.879,95.438,540.955,538.533,0.0
53157.0,STARLINK-4093,PAYLOAD,2022-10-31 14:00:01,15.08850911,0.0001789,53.2159,263.8211,58.0361,179.3284,-0.0033979999999999,-0.00053979,0.0,0 STARLINK-4093,1 53157U 22083AB  22304.58334491 -.00053979  00000-0 -33980-2 0  9994,2 53157  53.2159 263.8211 0001789  58.0361 179.3284 15.08850911  1305,6917.847,95.437,540.95,538.474,0.0
53157.0,STARLINK-4093,PAYLOAD,2022-10-31 22:00:01,15.08826168,0.0001745,53.2159,262.3244,63.2817,185.7262,0.0015921,0.00025132,0.0,0 STARLINK-4093,1 53157U 22083AB  22304.91668981  .00025132  00000-0  15921-2 0  9998,2 53157  53.2159 262.3244 0001745  63.2817 185.7262 15.08826168  1305,6917.9230000000025,95.438,540.995,538.58,0.0
53157.0,STARLINK-4093,PAYLOAD,2022-11-01 14:00:01,15.08843548,0.0001696,53.2155,259.332,56.9331,215.2064,-0.00039583,-6.583e-05,0.0,0 STARLINK-4093,1 53157U 22083AB  22305.58334491 -.00006583  00000-0 -39583-3 0  9990,2 53157  53.2155 259.3320 0001696  56.9331 215.2064 15.08843548  1307,6917.87,95.437,540.908,538.561,0.0
53157.0,STARLINK-4093,PAYLOAD,2022-11-01 22:00:00,15.08866561,0.0001645,53.2155,257.8352,61.8848,221.8417,-0.0012805,-0.00020624,0.0,0 STARLINK-4093,1 53157U 22083AB  22305.91667824 -.00020624  00000-0 -12805-2 0  9995,2 53157  53.2155 257.8352 0001645  61.8848 221.8417 15.08866561  1302,6917.799,95.436,540.802,538.526,0.0
53157.0,STARLINK-4093,PAYLOAD,2022-11-02 14:00:01,15.08815461,0.0001636,53.2161,254.8438,55.5529,251.3786,-0.001313,-0.0002110999999999,0.0,0 STARLINK-4093,1 53157U 22083AB  22306.58334491 -.00021110  00000-0 -13130-2 0  9993,2 53157  53.2161 254.8438 0001636  55.5529 251.3786 15.08815461  1307,6917.955,95.439,540.952,538.689,0.0
53157.0,STARLINK-4093,PAYLOAD,2022-11-02 18:00:02,15.08782624,0.00016,53.2162,254.0962,59.0743,73.7059,0.0037957,0.00060545,0.0,0 STARLINK-4093,1 53157U 22083AB  22306.75002315  .00060545  00000-0  37957-2 0  9995,2 53157  53.2162 254.0962 0001600  59.0743  73.7059 15.08782624  1303,6918.056,95.441,541.028,538.814,0.0
53157.0,STARLINK-4093,PAYLOAD,2022-11-03 02:57:12,15.08836455,0.0001636,53.2163,252.4192,63.0327,297.0832,0.00010192,1.334e-05,0.0,0 STARLINK-4093,1 53157U 22083AB  22307.12305637  .00001334  00000-0  10192-3 0  9994,2 53157  53.2163 252.4192 0001636  63.0327 297.0832 15.08836455 17425,6917.891,95.438,540.888,538.624,0.0
53157.0,STARLINK-4093,PAYLOAD,2022-11-04 02:47:58,15.08876905,0.0001535,53.2162,247.9574,58.7996,301.3146,0.0012599,0.0001984,0.0,0 STARLINK-4093,1 53157U 22083AB  22308.11664505  .00019840  00000-0  12599-2 0  9999,2 53157  53.2162 247.9574 0001535  58.7996 301.3146 15.08876905 17575,6917.768,95.435,540.694,538.571,0.0
